{
  "type": "FeatureCollection",
  "name": "Delhi-NCR Central Cadastral Zone 4 Fabric",
  "crs": {
    "type": "name",
    "properties": {
      "name": "urn:ogc:def:crs:OGC:1.3:CRS84"
    }
  },
  "metadata": {
    "authority": "Department of Land Resources (DoLR) / Survey of India",
    "datum": "WGS84 / EPSG:4326",
    "cors_anchor_network": "Survey of India CORS Network (SVAMITVA)",
    "parcels_count": 20
  },
  "features": [
    {
      "type": "Feature",
      "id": "AOI-0341",
      "properties": {
        "parcel_code": "AOI-0341",
        "khasra_number": "Khasra No. 129/4B",
        "revenue_ward": "Ward 14 - Barakhamba Urban",
        "village_name": "Jaisinghpura (Civil Station)",
        "area_sqm": 9865.91,
        "perimeter_m": 401.92,
        "compactness_ratio": 0.7675,
        "landuse_class": "residential",
        "landuse_confidence": 0.88,
        "segmentation_confidence": 0.74,
        "floors": 3,
        "height_m": 10.5,
        "elevation_amsl_m": 216.4,
        "nearest_cors_station": "SOI-CORS-DL04",
        "cors_residual_m": 0.31,
        "legacy_khasra_iou": 0.42,
        "hausdorff_divergence_m": 6.8,
        "road_access_distance_m": 0.0,
        "nearest_road_type": "secondary_arterial",
        "verification_status": "flagged",
        "priority_score": 87.0,
        "priority_band": "critical",
        "field_survey_required": true
      },
      "geometry": {
        "type": "Polygon",
        "coordinates": [
          [
            [
              77.216,
              28.625500000000002
            ],
            [
              77.21714999999999,
              28.625500000000002
            ],
            [
              77.21714999999999,
              28.626250000000002
            ],
            [
              77.21594999999999,
              28.6263
            ],
            [
              77.216,
              28.625500000000002
            ]
          ]
        ]
      }
    },
    {
      "type": "Feature",
      "id": "AOI-0112",
      "properties": {
        "parcel_code": "AOI-0112",
        "khasra_number": "Khasra No. 88/2",
        "revenue_ward": "Ward 12 - Tilak Marg Sub-Division",
        "village_name": "Babarpur Dehat",
        "area_sqm": 8727.73,
        "perimeter_m": 380.76,
        "compactness_ratio": 0.7565,
        "landuse_class": "commercial",
        "landuse_confidence": 0.82,
        "segmentation_confidence": 0.71,
        "floors": 4,
        "height_m": 14.0,
        "elevation_amsl_m": 215.8,
        "nearest_cors_station": "SOI-CORS-DL01",
        "cors_residual_m": 0.45,
        "legacy_khasra_iou": 0.739,
        "hausdorff_divergence_m": 29.34,
        "road_access_distance_m": 0.0,
        "nearest_road_type": "primary_arterial",
        "verification_status": "flagged",
        "priority_score": 30.5,
        "priority_band": "moderate",
        "field_survey_required": false
      },
      "geometry": {
        "type": "Polygon",
        "coordinates": [
          [
            [
              77.21249999999999,
              28.6228
            ],
            [
              77.2136,
              28.6228
            ],
            [
              77.2136,
              28.6235
            ],
            [
              77.21239999999999,
              28.6235
            ],
            [
              77.21249999999999,
              28.6228
            ]
          ]
        ]
      }
    },
    {
      "type": "Feature",
      "id": "AOI-0205",
      "properties": {
        "parcel_code": "AOI-0205",
        "khasra_number": "Khasra No. 204/1A",
        "revenue_ward": "Ward 14 - Barakhamba Urban",
        "village_name": "Jaisinghpura (Civil Station)",
        "area_sqm": 9540.68,
        "perimeter_m": 392.53,
        "compactness_ratio": 0.7781,
        "landuse_class": "mixed",
        "landuse_confidence": 0.86,
        "segmentation_confidence": 0.82,
        "floors": 2,
        "height_m": 7.0,
        "elevation_amsl_m": 216.9,
        "nearest_cors_station": "SOI-CORS-DL04",
        "cors_residual_m": 0.28,
        "legacy_khasra_iou": 0.895,
        "hausdorff_divergence_m": 7.39,
        "road_access_distance_m": 0.0,
        "nearest_road_type": "primary_arterial",
        "verification_status": "ai_proposed",
        "priority_score": 19.2,
        "priority_band": "low",
        "field_survey_required": false
      },
      "geometry": {
        "type": "Polygon",
        "coordinates": [
          [
            [
              77.21749999999999,
              28.625500000000002
            ],
            [
              77.2186,
              28.625500000000002
            ],
            [
              77.2186,
              28.6263
            ],
            [
              77.21749999999999,
              28.6263
            ],
            [
              77.21749999999999,
              28.625500000000002
            ]
          ]
        ]
      }
    },
    {
      "type": "Feature",
      "id": "AOI-0045",
      "properties": {
        "parcel_code": "AOI-0045",
        "khasra_number": "Khasra No. 45/9",
        "revenue_ward": "Ward 09 - Mandi House Circle",
        "village_name": "Babar Road Estate",
        "area_sqm": 12684.28,
        "perimeter_m": 453.81,
        "compactness_ratio": 0.774,
        "landuse_class": "residential",
        "landuse_confidence": 0.96,
        "segmentation_confidence": 0.94,
        "floors": 2,
        "height_m": 6.8,
        "elevation_amsl_m": 217.2,
        "nearest_cors_station": "SOI-CORS-DL07",
        "cors_residual_m": 0.12,
        "legacy_khasra_iou": 1.0,
        "hausdorff_divergence_m": 0.0,
        "road_access_distance_m": 55.8,
        "nearest_road_type": "tertiary_corridor",
        "verification_status": "approved",
        "priority_score": 3.0,
        "priority_band": "low",
        "field_survey_required": false
      },
      "geometry": {
        "type": "Polygon",
        "coordinates": [
          [
            [
              77.2195,
              28.6298
            ],
            [
              77.2208,
              28.6298
            ],
            [
              77.2208,
              28.6307
            ],
            [
              77.2195,
              28.6307
            ],
            [
              77.2195,
              28.6298
            ]
          ]
        ]
      }
    },
    {
      "type": "Feature",
      "id": "AOI-1010",
      "properties": {
        "parcel_code": "AOI-1010",
        "khasra_number": "Khasra No. 221/1",
        "revenue_ward": "Ward 10 - Central Cadastre",
        "village_name": "Jaisinghpura (Civil Station)",
        "area_sqm": 24286.09,
        "perimeter_m": 628.58,
        "compactness_ratio": 0.7724,
        "landuse_class": "residential",
        "landuse_confidence": 0.85,
        "segmentation_confidence": 0.76,
        "floors": 1,
        "height_m": 3.5,
        "elevation_amsl_m": 215.5,
        "nearest_cors_station": "SOI-CORS-DL01",
        "cors_residual_m": 0.02,
        "legacy_khasra_iou": 0.914,
        "hausdorff_divergence_m": 9.55,
        "road_access_distance_m": 0.0,
        "nearest_road_type": "primary_arterial",
        "verification_status": "ai_proposed",
        "priority_score": 21.7,
        "priority_band": "low",
        "field_survey_required": false
      },
      "geometry": {
        "type": "Polygon",
        "coordinates": [
          [
            [
              77.2112,
              28.6212
            ],
            [
              77.2126,
              28.6212
            ],
            [
              77.2126,
              28.6228
            ],
            [
              77.2112,
              28.6228
            ],
            [
              77.2112,
              28.6212
            ]
          ]
        ]
      }
    },
    {
      "type": "Feature",
      "id": "AOI-1011",
      "properties": {
        "parcel_code": "AOI-1011",
        "khasra_number": "Khasra No. 222/2",
        "revenue_ward": "Ward 10 - Central Cadastre",
        "village_name": "Jaisinghpura (Civil Station)",
        "area_sqm": 24286.13,
        "perimeter_m": 628.58,
        "compactness_ratio": 0.7724,
        "landuse_class": "commercial",
        "landuse_confidence": 0.87,
        "segmentation_confidence": 0.88,
        "floors": 1,
        "height_m": 3.5,
        "elevation_amsl_m": 215.7,
        "nearest_cors_station": null,
        "cors_residual_m": null,
        "legacy_khasra_iou": 0.987,
        "hausdorff_divergence_m": 1.48,
        "road_access_distance_m": 0.0,
        "nearest_road_type": "primary_arterial",
        "verification_status": "ai_proposed",
        "priority_score": 17.4,
        "priority_band": "low",
        "field_survey_required": false
      },
      "geometry": {
        "type": "Polygon",
        "coordinates": [
          [
            [
              77.2128,
              28.6212
            ],
            [
              77.2142,
              28.6212
            ],
            [
              77.2142,
              28.6228
            ],
            [
              77.2128,
              28.6228
            ],
            [
              77.2128,
              28.6212
            ]
          ]
        ]
      }
    },
    {
      "type": "Feature",
      "id": "AOI-1012",
      "properties": {
        "parcel_code": "AOI-1012",
        "khasra_number": "Khasra No. 223/3",
        "revenue_ward": "Ward 10 - Central Cadastre",
        "village_name": "Jaisinghpura (Civil Station)",
        "area_sqm": 24286.17,
        "perimeter_m": 628.58,
        "compactness_ratio": 0.7724,
        "landuse_class": "mixed",
        "landuse_confidence": 0.89,
        "segmentation_confidence": 0.88,
        "floors": 1,
        "height_m": 3.5,
        "elevation_amsl_m": 215.9,
        "nearest_cors_station": "SOI-CORS-DL07",
        "cors_residual_m": 0.02,
        "legacy_khasra_iou": 0.987,
        "hausdorff_divergence_m": 1.48,
        "road_access_distance_m": 9.4,
        "nearest_road_type": "tertiary_corridor",
        "verification_status": "ai_proposed",
        "priority_score": 7.2,
        "priority_band": "low",
        "field_survey_required": false
      },
      "geometry": {
        "type": "Polygon",
        "coordinates": [
          [
            [
              77.2144,
              28.6212
            ],
            [
              77.2158,
              28.6212
            ],
            [
              77.2158,
              28.6228
            ],
            [
              77.2144,
              28.6228
            ],
            [
              77.2144,
              28.6212
            ]
          ]
        ]
      }
    },
    {
      "type": "Feature",
      "id": "AOI-1013",
      "properties": {
        "parcel_code": "AOI-1013",
        "khasra_number": "Khasra No. 224/4",
        "revenue_ward": "Ward 10 - Central Cadastre",
        "village_name": "Jaisinghpura (Civil Station)",
        "area_sqm": 24286.21,
        "perimeter_m": 628.58,
        "compactness_ratio": 0.7724,
        "landuse_class": "public_semi_public",
        "landuse_confidence": 0.91,
        "segmentation_confidence": 0.76,
        "floors": 1,
        "height_m": 3.5,
        "elevation_amsl_m": 216.1,
        "nearest_cors_station": null,
        "cors_residual_m": null,
        "legacy_khasra_iou": 0.914,
        "hausdorff_divergence_m": 9.55,
        "road_access_distance_m": 0.0,
        "nearest_road_type": "tertiary_corridor",
        "verification_status": "ai_proposed",
        "priority_score": 30.7,
        "priority_band": "moderate",
        "field_survey_required": false
      },
      "geometry": {
        "type": "Polygon",
        "coordinates": [
          [
            [
              77.216,
              28.6212
            ],
            [
              77.2174,
              28.6212
            ],
            [
              77.2174,
              28.6228
            ],
            [
              77.216,
              28.6228
            ],
            [
              77.216,
              28.6212
            ]
          ]
        ]
      }
    },
    {
      "type": "Feature",
      "id": "AOI-1014",
      "properties": {
        "parcel_code": "AOI-1014",
        "khasra_number": "Khasra No. 225/1",
        "revenue_ward": "Ward 11 - Central Cadastre",
        "village_name": "Jaisinghpura (Civil Station)",
        "area_sqm": 24285.66,
        "perimeter_m": 628.58,
        "compactness_ratio": 0.7724,
        "landuse_class": "mixed",
        "landuse_confidence": 0.85,
        "segmentation_confidence": 0.88,
        "floors": 2,
        "height_m": 7.0,
        "elevation_amsl_m": 215.9,
        "nearest_cors_station": null,
        "cors_residual_m": null,
        "legacy_khasra_iou": 0.987,
        "hausdorff_divergence_m": 1.48,
        "road_access_distance_m": 61.9,
        "nearest_road_type": "primary_arterial",
        "verification_status": "ai_proposed",
        "priority_score": 17.7,
        "priority_band": "low",
        "field_survey_required": false
      },
      "geometry": {
        "type": "Polygon",
        "coordinates": [
          [
            [
              77.2112,
              28.6231
            ],
            [
              77.2126,
              28.6231
            ],
            [
              77.2126,
              28.6247
            ],
            [
              77.2112,
              28.6247
            ],
            [
              77.2112,
              28.6231
            ]
          ]
        ]
      }
    },
    {
      "type": "Feature",
      "id": "AOI-1015",
      "properties": {
        "parcel_code": "AOI-1015",
        "khasra_number": "Khasra No. 226/2",
        "revenue_ward": "Ward 11 - Central Cadastre",
        "village_name": "Jaisinghpura (Civil Station)",
        "area_sqm": 24285.7,
        "perimeter_m": 628.58,
        "compactness_ratio": 0.7724,
        "landuse_class": "public_semi_public",
        "landuse_confidence": 0.87,
        "segmentation_confidence": 0.88,
        "floors": 2,
        "height_m": 7.0,
        "elevation_amsl_m": 216.1,
        "nearest_cors_station": "SOI-CORS-DL07",
        "cors_residual_m": 0.02,
        "legacy_khasra_iou": 0.987,
        "hausdorff_divergence_m": 1.48,
        "road_access_distance_m": 0.0,
        "nearest_road_type": "primary_arterial",
        "verification_status": "ai_proposed",
        "priority_score": 7.5,
        "priority_band": "low",
        "field_survey_required": false
      },
      "geometry": {
        "type": "Polygon",
        "coordinates": [
          [
            [
              77.2128,
              28.6231
            ],
            [
              77.2142,
              28.6231
            ],
            [
              77.2142,
              28.6247
            ],
            [
              77.2128,
              28.6247
            ],
            [
              77.2128,
              28.6231
            ]
          ]
        ]
      }
    },
    {
      "type": "Feature",
      "id": "AOI-1016",
      "properties": {
        "parcel_code": "AOI-1016",
        "khasra_number": "Khasra No. 227/3",
        "revenue_ward": "Ward 11 - Central Cadastre",
        "village_name": "Jaisinghpura (Civil Station)",
        "area_sqm": 24285.74,
        "perimeter_m": 628.58,
        "compactness_ratio": 0.7724,
        "landuse_class": "green_belt",
        "landuse_confidence": 0.89,
        "segmentation_confidence": 0.76,
        "floors": 2,
        "height_m": 7.0,
        "elevation_amsl_m": 216.3,
        "nearest_cors_station": null,
        "cors_residual_m": null,
        "legacy_khasra_iou": 0.914,
        "hausdorff_divergence_m": 9.55,
        "road_access_distance_m": 0.0,
        "nearest_road_type": "primary_arterial",
        "verification_status": "ai_proposed",
        "priority_score": 31.0,
        "priority_band": "moderate",
        "field_survey_required": false
      },
      "geometry": {
        "type": "Polygon",
        "coordinates": [
          [
            [
              77.2144,
              28.6231
            ],
            [
              77.2158,
              28.6231
            ],
            [
              77.2158,
              28.6247
            ],
            [
              77.2144,
              28.6247
            ],
            [
              77.2144,
              28.6231
            ]
          ]
        ]
      }
    },
    {
      "type": "Feature",
      "id": "AOI-1017",
      "properties": {
        "parcel_code": "AOI-1017",
        "khasra_number": "Khasra No. 228/4",
        "revenue_ward": "Ward 11 - Central Cadastre",
        "village_name": "Jaisinghpura (Civil Station)",
        "area_sqm": 24285.78,
        "perimeter_m": 628.58,
        "compactness_ratio": 0.7724,
        "landuse_class": "residential",
        "landuse_confidence": 0.91,
        "segmentation_confidence": 0.88,
        "floors": 2,
        "height_m": 7.0,
        "elevation_amsl_m": 216.5,
        "nearest_cors_station": "SOI-CORS-UP05",
        "cors_residual_m": 0.03,
        "legacy_khasra_iou": 0.987,
        "hausdorff_divergence_m": 1.48,
        "road_access_distance_m": 0.0,
        "nearest_road_type": "primary_arterial",
        "verification_status": "ai_proposed",
        "priority_score": 7.0,
        "priority_band": "low",
        "field_survey_required": false
      },
      "geometry": {
        "type": "Polygon",
        "coordinates": [
          [
            [
              77.216,
              28.6231
            ],
            [
              77.2174,
              28.6231
            ],
            [
              77.2174,
              28.6247
            ],
            [
              77.216,
              28.6247
            ],
            [
              77.216,
              28.6231
            ]
          ]
        ]
      }
    },
    {
      "type": "Feature",
      "id": "AOI-1018",
      "properties": {
        "parcel_code": "AOI-1018",
        "khasra_number": "Khasra No. 229/1",
        "revenue_ward": "Ward 12 - Central Cadastre",
        "village_name": "Jaisinghpura (Civil Station)",
        "area_sqm": 24285.23,
        "perimeter_m": 628.57,
        "compactness_ratio": 0.7724,
        "landuse_class": "green_belt",
        "landuse_confidence": 0.85,
        "segmentation_confidence": 0.88,
        "floors": 3,
        "height_m": 10.5,
        "elevation_amsl_m": 216.3,
        "nearest_cors_station": "SOI-CORS-DL07",
        "cors_residual_m": 0.02,
        "legacy_khasra_iou": 0.987,
        "hausdorff_divergence_m": 1.48,
        "road_access_distance_m": 133.0,
        "nearest_road_type": "secondary_arterial",
        "verification_status": "ai_proposed",
        "priority_score": 7.8,
        "priority_band": "low",
        "field_survey_required": false
      },
      "geometry": {
        "type": "Polygon",
        "coordinates": [
          [
            [
              77.2112,
              28.625
            ],
            [
              77.2126,
              28.625
            ],
            [
              77.2126,
              28.6266
            ],
            [
              77.2112,
              28.6266
            ],
            [
              77.2112,
              28.625
            ]
          ]
        ]
      }
    },
    {
      "type": "Feature",
      "id": "AOI-1019",
      "properties": {
        "parcel_code": "AOI-1019",
        "khasra_number": "Khasra No. 230/2",
        "revenue_ward": "Ward 12 - Central Cadastre",
        "village_name": "Jaisinghpura (Civil Station)",
        "area_sqm": 24285.27,
        "perimeter_m": 628.57,
        "compactness_ratio": 0.7724,
        "landuse_class": "residential",
        "landuse_confidence": 0.87,
        "segmentation_confidence": 0.76,
        "floors": 3,
        "height_m": 10.5,
        "elevation_amsl_m": 216.5,
        "nearest_cors_station": null,
        "cors_residual_m": null,
        "legacy_khasra_iou": 0.914,
        "hausdorff_divergence_m": 9.55,
        "road_access_distance_m": 53.0,
        "nearest_road_type": "secondary_arterial",
        "verification_status": "ai_proposed",
        "priority_score": 31.3,
        "priority_band": "moderate",
        "field_survey_required": false
      },
      "geometry": {
        "type": "Polygon",
        "coordinates": [
          [
            [
              77.2128,
              28.625
            ],
            [
              77.2142,
              28.625
            ],
            [
              77.2142,
              28.6266
            ],
            [
              77.2128,
              28.6266
            ],
            [
              77.2128,
              28.625
            ]
          ]
        ]
      }
    },
    {
      "type": "Feature",
      "id": "AOI-1020",
      "properties": {
        "parcel_code": "AOI-1020",
        "khasra_number": "Khasra No. 231/3",
        "revenue_ward": "Ward 12 - Central Cadastre",
        "village_name": "Jaisinghpura (Civil Station)",
        "area_sqm": 24285.31,
        "perimeter_m": 628.57,
        "compactness_ratio": 0.7724,
        "landuse_class": "commercial",
        "landuse_confidence": 0.89,
        "segmentation_confidence": 0.88,
        "floors": 3,
        "height_m": 10.5,
        "elevation_amsl_m": 216.7,
        "nearest_cors_station": "SOI-CORS-UP05",
        "cors_residual_m": 0.03,
        "legacy_khasra_iou": 0.987,
        "hausdorff_divergence_m": 1.48,
        "road_access_distance_m": 0.0,
        "nearest_road_type": "secondary_arterial",
        "verification_status": "ai_proposed",
        "priority_score": 7.3,
        "priority_band": "low",
        "field_survey_required": false
      },
      "geometry": {
        "type": "Polygon",
        "coordinates": [
          [
            [
              77.2144,
              28.625
            ],
            [
              77.2158,
              28.625
            ],
            [
              77.2158,
              28.6266
            ],
            [
              77.2144,
              28.6266
            ],
            [
              77.2144,
              28.625
            ]
          ]
        ]
      }
    },
    {
      "type": "Feature",
      "id": "AOI-1021",
      "properties": {
        "parcel_code": "AOI-1021",
        "khasra_number": "Khasra No. 232/4",
        "revenue_ward": "Ward 12 - Central Cadastre",
        "village_name": "Jaisinghpura (Civil Station)",
        "area_sqm": 24285.35,
        "perimeter_m": 628.57,
        "compactness_ratio": 0.7724,
        "landuse_class": "mixed",
        "landuse_confidence": 0.91,
        "segmentation_confidence": 0.88,
        "floors": 3,
        "height_m": 10.5,
        "elevation_amsl_m": 216.9,
        "nearest_cors_station": null,
        "cors_residual_m": null,
        "legacy_khasra_iou": 0.987,
        "hausdorff_divergence_m": 1.48,
        "road_access_distance_m": 0.0,
        "nearest_road_type": "primary_arterial",
        "verification_status": "ai_proposed",
        "priority_score": 16.8,
        "priority_band": "low",
        "field_survey_required": false
      },
      "geometry": {
        "type": "Polygon",
        "coordinates": [
          [
            [
              77.216,
              28.625
            ],
            [
              77.2174,
              28.625
            ],
            [
              77.2174,
              28.6266
            ],
            [
              77.216,
              28.6266
            ],
            [
              77.216,
              28.625
            ]
          ]
        ]
      }
    },
    {
      "type": "Feature",
      "id": "AOI-1022",
      "properties": {
        "parcel_code": "AOI-1022",
        "khasra_number": "Khasra No. 233/1",
        "revenue_ward": "Ward 13 - Central Cadastre",
        "village_name": "Jaisinghpura (Civil Station)",
        "area_sqm": 24284.8,
        "perimeter_m": 628.57,
        "compactness_ratio": 0.7724,
        "landuse_class": "commercial",
        "landuse_confidence": 0.85,
        "segmentation_confidence": 0.76,
        "floors": 4,
        "height_m": 14.0,
        "elevation_amsl_m": 216.7,
        "nearest_cors_station": null,
        "cors_residual_m": null,
        "legacy_khasra_iou": 0.914,
        "hausdorff_divergence_m": 9.54,
        "road_access_distance_m": 88.0,
        "nearest_road_type": "secondary_arterial",
        "verification_status": "ai_proposed",
        "priority_score": 31.6,
        "priority_band": "moderate",
        "field_survey_required": false
      },
      "geometry": {
        "type": "Polygon",
        "coordinates": [
          [
            [
              77.2112,
              28.6269
            ],
            [
              77.2126,
              28.6269
            ],
            [
              77.2126,
              28.6285
            ],
            [
              77.2112,
              28.6285
            ],
            [
              77.2112,
              28.6269
            ]
          ]
        ]
      }
    },
    {
      "type": "Feature",
      "id": "AOI-1023",
      "properties": {
        "parcel_code": "AOI-1023",
        "khasra_number": "Khasra No. 234/2",
        "revenue_ward": "Ward 13 - Central Cadastre",
        "village_name": "Jaisinghpura (Civil Station)",
        "area_sqm": 24284.84,
        "perimeter_m": 628.57,
        "compactness_ratio": 0.7724,
        "landuse_class": "mixed",
        "landuse_confidence": 0.87,
        "segmentation_confidence": 0.88,
        "floors": 4,
        "height_m": 14.0,
        "elevation_amsl_m": 216.9,
        "nearest_cors_station": "SOI-CORS-UP05",
        "cors_residual_m": 0.03,
        "legacy_khasra_iou": 0.987,
        "hausdorff_divergence_m": 1.48,
        "road_access_distance_m": 0.0,
        "nearest_road_type": "secondary_arterial",
        "verification_status": "ai_proposed",
        "priority_score": 7.6,
        "priority_band": "low",
        "field_survey_required": false
      },
      "geometry": {
        "type": "Polygon",
        "coordinates": [
          [
            [
              77.2128,
              28.6269
            ],
            [
              77.2142,
              28.6269
            ],
            [
              77.2142,
              28.6285
            ],
            [
              77.2128,
              28.6285
            ],
            [
              77.2128,
              28.6269
            ]
          ]
        ]
      }
    },
    {
      "type": "Feature",
      "id": "AOI-1024",
      "properties": {
        "parcel_code": "AOI-1024",
        "khasra_number": "Khasra No. 235/3",
        "revenue_ward": "Ward 13 - Central Cadastre",
        "village_name": "Jaisinghpura (Civil Station)",
        "area_sqm": 24284.88,
        "perimeter_m": 628.57,
        "compactness_ratio": 0.7724,
        "landuse_class": "public_semi_public",
        "landuse_confidence": 0.89,
        "segmentation_confidence": 0.88,
        "floors": 4,
        "height_m": 14.0,
        "elevation_amsl_m": 217.1,
        "nearest_cors_station": null,
        "cors_residual_m": null,
        "legacy_khasra_iou": 0.987,
        "hausdorff_divergence_m": 1.48,
        "road_access_distance_m": 0.0,
        "nearest_road_type": "secondary_arterial",
        "verification_status": "ai_proposed",
        "priority_score": 17.1,
        "priority_band": "low",
        "field_survey_required": false
      },
      "geometry": {
        "type": "Polygon",
        "coordinates": [
          [
            [
              77.2144,
              28.6269
            ],
            [
              77.2158,
              28.6269
            ],
            [
              77.2158,
              28.6285
            ],
            [
              77.2144,
              28.6285
            ],
            [
              77.2144,
              28.6269
            ]
          ]
        ]
      }
    },
    {
      "type": "Feature",
      "id": "AOI-1025",
      "properties": {
        "parcel_code": "AOI-1025",
        "khasra_number": "Khasra No. 236/4",
        "revenue_ward": "Ward 13 - Central Cadastre",
        "village_name": "Jaisinghpura (Civil Station)",
        "area_sqm": 24284.92,
        "perimeter_m": 628.57,
        "compactness_ratio": 0.7724,
        "landuse_class": "green_belt",
        "landuse_confidence": 0.91,
        "segmentation_confidence": 0.76,
        "floors": 4,
        "height_m": 14.0,
        "elevation_amsl_m": 217.3,
        "nearest_cors_station": "SOI-CORS-DL04",
        "cors_residual_m": 0.03,
        "legacy_khasra_iou": 0.914,
        "hausdorff_divergence_m": 9.54,
        "road_access_distance_m": 23.0,
        "nearest_road_type": "cadastral_access",
        "verification_status": "ai_proposed",
        "priority_score": 20.8,
        "priority_band": "low",
        "field_survey_required": false
      },
      "geometry": {
        "type": "Polygon",
        "coordinates": [
          [
            [
              77.216,
              28.6269
            ],
            [
              77.2174,
              28.6269
            ],
            [
              77.2174,
              28.6285
            ],
            [
              77.216,
              28.6285
            ],
            [
              77.216,
              28.6269
            ]
          ]
        ]
      }
    }
  ]
}